J27L00A 11.0   0.15 J2776  48.29000  341.03399  191.72427   17.63374  0.3341000  0.16109810   3.3451000    AN    232     3   1   34 days              Kahrstedt  2000          1927 LA            19270705
